[{"OBJECT_NAME":"STARLINK-32586","OBJECT_ID":"2024-210S","EPOCH":"2026-03-09T07:47:05.017632","MEAN_MOTION":15.27591735,"ECCENTRICITY":0.00027237,"INCLINATION":43.0023,"RA_OF_ASC_NODE":181.9245,"ARG_OF_PERICENTER":285.0175,"MEAN_ANOMALY":75.0375,"EPHEMERIS_TYPE":0,"CLASSIFICATION_TYPE":"U","NORAD_CAT_ID":61975,"ELEMENT_SET_NO":999,"REV_AT_EPOCH":7482,"BSTAR":0.0013300912,"MEAN_MOTION_DOT":0.00036536,"MEAN_MOTION_DDOT":0},{"OBJECT_NAME":"HAWK-11A","OBJECT_ID":"2024-247F","EPOCH":"2026-03-09T12:17:43.893312","MEAN_MOTION":15.28849427,"ECCENTRICITY":0.00054663,"INCLINATION":44.9941,"RA_OF_ASC_NODE":114.3328,"ARG_OF_PERICENTER":327.3713,"MEAN_ANOMALY":32.6832,"EPHEMERIS_TYPE":0,"CLASSIFICATION_TYPE":"U","NORAD_CAT_ID":62382,"ELEMENT_SET_NO":999,"REV_AT_EPOCH":6774,"BSTAR":0.00034106017,"MEAN_MOTION_DOT":9.457e-5,"MEAN_MOTION_DDOT":0}]
